CCSDS_OMM_VERS = 2.0
CREATION_DATE  = 
ORIGINATOR     = 

OBJECT_NAME    = SL-14 R/B
OBJECT_ID      = 1986-046B
CENTER_NAME    = EARTH
REF_FRAME      = TEME
TIME_SYSTEM    = UTC
MEAN_ELEMENT_THEORY = SGP/SGP4

EPOCH          = 2026-01-07T10:41:49.113312
MEAN_MOTION    = 14.85520257
ECCENTRICITY   = .0024484
INCLINATION    = 82.4833
RA_OF_ASC_NODE = 138.0385
ARG_OF_PERICENTER = 71.6695
MEAN_ANOMALY   = 288.7181

EPHEMERIS_TYPE = 0
CLASSIFICATION_TYPE = U
NORAD_CAT_ID   = 16792
ELEMENT_SET_NO = 999
REV_AT_EPOCH   = 11731
BSTAR          = .72724E-4
MEAN_MOTION_DOT = .656E-5
MEAN_MOTION_DDOT = 0

CCSDS_OMM_VERS = 2.0
CREATION_DATE  = 
ORIGINATOR     = 

OBJECT_NAME    = SL-14 R/B
OBJECT_ID      = 1986-055B
CENTER_NAME    = EARTH
REF_FRAME      = TEME
TIME_SYSTEM    = UTC
MEAN_ELEMENT_THEORY = SGP/SGP4

EPOCH          = 2026-01-07T12:13:10.368192
MEAN_MOTION    = 14.85563437
ECCENTRICITY   = .0019072
INCLINATION    = 82.5200
RA_OF_ASC_NODE = 184.1575
ARG_OF_PERICENTER = 170.4880
MEAN_ANOMALY   = 243.4682

EPHEMERIS_TYPE = 0
CLASSIFICATION_TYPE = U
NORAD_CAT_ID   = 16882
ELEMENT_SET_NO = 999
REV_AT_EPOCH   = 11028
BSTAR          = .73172E-4
MEAN_MOTION_DOT = .659E-5
MEAN_MOTION_DDOT = 0

CCSDS_OMM_VERS = 2.0
CREATION_DATE  = 
ORIGINATOR     = 

OBJECT_NAME    = AJISAI (EGS)
OBJECT_ID      = 1986-061A
CENTER_NAME    = EARTH
REF_FRAME      = TEME
TIME_SYSTEM    = UTC
MEAN_ELEMENT_THEORY = SGP/SGP4

EPOCH          = 2026-01-07T12:06:03.999744
MEAN_MOTION    = 12.44514727
ECCENTRICITY   = .0011311
INCLINATION    = 50.0098
RA_OF_ASC_NODE = 281.4945
ARG_OF_PERICENTER = 130.5623
MEAN_ANOMALY   = 220.8544

EPHEMERIS_TYPE = 0
CLASSIFICATION_TYPE = U
NORAD_CAT_ID   = 16908
ELEMENT_SET_NO = 999
REV_AT_EPOCH   = 46037
BSTAR          = .19214E-3
MEAN_MOTION_DOT = -.7E-6
MEAN_MOTION_DDOT = 0

CCSDS_OMM_VERS = 2.0
CREATION_DATE  = 
ORIGINATOR     = 

OBJECT_NAME    = COSMOS 1812
OBJECT_ID      = 1987-003A
CENTER_NAME    = EARTH
REF_FRAME      = TEME
TIME_SYSTEM    = UTC
MEAN_ELEMENT_THEORY = SGP/SGP4

EPOCH          = 2026-01-07T03:40:06.240864
MEAN_MOTION    = 15.82004493
ECCENTRICITY   = .00041305
INCLINATION    = 82.4848
RA_OF_ASC_NODE = 264.3898
ARG_OF_PERICENTER = 58.3205
MEAN_ANOMALY   = 301.8466

EPHEMERIS_TYPE = 0
CLASSIFICATION_TYPE = U
NORAD_CAT_ID   = 17295
ELEMENT_SET_NO = 999
REV_AT_EPOCH   = 13466
BSTAR          = .60970706E-3
MEAN_MOTION_DOT = .125153E-2
MEAN_MOTION_DDOT = 0

CCSDS_OMM_VERS = 2.0
CREATION_DATE  = 
ORIGINATOR     = 

OBJECT_NAME    = SL-14 R/B
OBJECT_ID      = 1987-024B
CENTER_NAME    = EARTH
REF_FRAME      = TEME
TIME_SYSTEM    = UTC
MEAN_ELEMENT_THEORY = SGP/SGP4

EPOCH          = 2026-01-07T10:24:59.384160
MEAN_MOTION    = 14.86059767
ECCENTRICITY   = .0019669
INCLINATION    = 82.5292
RA_OF_ASC_NODE = 150.3178
ARG_OF_PERICENTER = 102.7952
MEAN_ANOMALY   = 257.5464

EPHEMERIS_TYPE = 0
CLASSIFICATION_TYPE = U
NORAD_CAT_ID   = 17567
ELEMENT_SET_NO = 999
REV_AT_EPOCH   = 7903
BSTAR          = .75189E-4
MEAN_MOTION_DOT = .685E-5
MEAN_MOTION_DDOT = 0

CCSDS_OMM_VERS = 2.0
CREATION_DATE  = 
ORIGINATOR     = 

OBJECT_NAME    = COSMOS 1833
OBJECT_ID      = 1987-027A
CENTER_NAME    = EARTH
REF_FRAME      = TEME
TIME_SYSTEM    = UTC
MEAN_ELEMENT_THEORY = SGP/SGP4

EPOCH          = 2026-01-07T11:39:18.046656
MEAN_MOTION    = 14.13038325
ECCENTRICITY   = .0023759
INCLINATION    = 70.9187
RA_OF_ASC_NODE = 94.6582
ARG_OF_PERICENTER = 295.9939
MEAN_ANOMALY   = 63.8735

EPHEMERIS_TYPE = 0
CLASSIFICATION_TYPE = U
NORAD_CAT_ID   = 17589
ELEMENT_SET_NO = 999
REV_AT_EPOCH   = 167
BSTAR          = .21496E-3
MEAN_MOTION_DOT = .354E-5
MEAN_MOTION_DDOT = 0

CCSDS_OMM_VERS = 2.0
CREATION_DATE  = 
ORIGINATOR     = 

OBJECT_NAME    = SL-16 R/B
OBJECT_ID      = 1987-027B
CENTER_NAME    = EARTH
REF_FRAME      = TEME
TIME_SYSTEM    = UTC
MEAN_ELEMENT_THEORY = SGP/SGP4

EPOCH          = 2026-01-07T11:53:22.625664
MEAN_MOTION    = 14.17157714
ECCENTRICITY   = .0006766
INCLINATION    = 71.0031
RA_OF_ASC_NODE = 45.4461
ARG_OF_PERICENTER = 232.3027
MEAN_ANOMALY   = 127.7484

EPHEMERIS_TYPE = 0
CLASSIFICATION_TYPE = U
NORAD_CAT_ID   = 17590
ELEMENT_SET_NO = 999
REV_AT_EPOCH   = 667
BSTAR          = .14289E-3
MEAN_MOTION_DOT = .24E-5
MEAN_MOTION_DDOT = 0

CCSDS_OMM_VERS = 2.0
CREATION_DATE  = 
ORIGINATOR     = 

OBJECT_NAME    = SL-14 R/B
OBJECT_ID      = 1987-038B
CENTER_NAME    = EARTH
REF_FRAME      = TEME
TIME_SYSTEM    = UTC
MEAN_ELEMENT_THEORY = SGP/SGP4

EPOCH          = 2026-01-07T11:09:19.283328
MEAN_MOTION    = 14.85293110
ECCENTRICITY   = .0019601
INCLINATION    = 82.5018
RA_OF_ASC_NODE = 354.4679
ARG_OF_PERICENTER = 11.7868
MEAN_ANOMALY   = 348.3803

EPHEMERIS_TYPE = 0
CLASSIFICATION_TYPE = U
NORAD_CAT_ID   = 17912
ELEMENT_SET_NO = 999
REV_AT_EPOCH   = 7014
BSTAR          = .70191E-4
MEAN_MOTION_DOT = .629E-5
MEAN_MOTION_DDOT = 0

CCSDS_OMM_VERS = 2.0
CREATION_DATE  = 
ORIGINATOR     = 

OBJECT_NAME    = COSMOS 1844
OBJECT_ID      = 1987-041A
CENTER_NAME    = EARTH
REF_FRAME      = TEME
TIME_SYSTEM    = UTC
MEAN_ELEMENT_THEORY = SGP/SGP4

EPOCH          = 2026-01-07T12:21:05.364288
MEAN_MOTION    = 14.14539287
ECCENTRICITY   = .0028556
INCLINATION    = 70.8992
RA_OF_ASC_NODE = 163.2077
ARG_OF_PERICENTER = 116.2747
MEAN_ANOMALY   = 244.1314

EPHEMERIS_TYPE = 0
CLASSIFICATION_TYPE = U
NORAD_CAT_ID   = 17973
ELEMENT_SET_NO = 999
REV_AT_EPOCH   = 99493
BSTAR          = .16952E-4
MEAN_MOTION_DOT = -.16E-6
MEAN_MOTION_DDOT = 0

CCSDS_OMM_VERS = 2.0
CREATION_DATE  = 
ORIGINATOR     = 

OBJECT_NAME    = SL-14 R/B
OBJECT_ID      = 1987-055B
CENTER_NAME    = EARTH
REF_FRAME      = TEME
TIME_SYSTEM    = UTC
MEAN_ELEMENT_THEORY = SGP/SGP4

EPOCH          = 2026-01-07T09:14:11.936832
MEAN_MOTION    = 14.85552262
ECCENTRICITY   = .0019832
INCLINATION    = 82.4981
RA_OF_ASC_NODE = 46.8162
ARG_OF_PERICENTER = 212.7630
MEAN_ANOMALY   = 147.2358

EPHEMERIS_TYPE = 0
CLASSIFICATION_TYPE = U
NORAD_CAT_ID   = 18153
ELEMENT_SET_NO = 999
REV_AT_EPOCH   = 6083
BSTAR          = .60847E-4
MEAN_MOTION_DOT = .552E-5
MEAN_MOTION_DDOT = 0

CCSDS_OMM_VERS = 2.0
CREATION_DATE  = 
ORIGINATOR     = 

OBJECT_NAME    = COSMOS 1867
OBJECT_ID      = 1987-060A
CENTER_NAME    = EARTH
REF_FRAME      = TEME
TIME_SYSTEM    = UTC
MEAN_ELEMENT_THEORY = SGP/SGP4

EPOCH          = 2026-01-07T12:31:20.316288
MEAN_MOTION    = 14.31491558
ECCENTRICITY   = .0013805
INCLINATION    = 65.0111
RA_OF_ASC_NODE = 118.0033
ARG_OF_PERICENTER = 273.6657
MEAN_ANOMALY   = 86.2848

EPHEMERIS_TYPE = 0
CLASSIFICATION_TYPE = U
NORAD_CAT_ID   = 18187
ELEMENT_SET_NO = 999
REV_AT_EPOCH   = 1118
BSTAR          = .39222E-4
MEAN_MOTION_DOT = .4E-7
MEAN_MOTION_DDOT = 0

CCSDS_OMM_VERS = 2.0
CREATION_DATE  = 
ORIGINATOR     = 

OBJECT_NAME    = SL-14 R/B
OBJECT_ID      = 1988-001B
CENTER_NAME    = EARTH
REF_FRAME      = TEME
TIME_SYSTEM    = UTC
MEAN_ELEMENT_THEORY = SGP/SGP4

EPOCH          = 2026-01-07T09:01:39.438624
MEAN_MOTION    = 14.85455268
ECCENTRICITY   = .0019604
INCLINATION    = 82.5123
RA_OF_ASC_NODE = 253.0362
ARG_OF_PERICENTER = 81.6628
MEAN_ANOMALY   = 278.6810

EPHEMERIS_TYPE = 0
CLASSIFICATION_TYPE = U
NORAD_CAT_ID   = 18749
ELEMENT_SET_NO = 999
REV_AT_EPOCH   = 3292
BSTAR          = .58714E-4
MEAN_MOTION_DOT = .532E-5
MEAN_MOTION_DDOT = 0

