SL-14 R/B               
1 16792U 86046B   26007.44570733  .00000656  00000+0  72724-4 0  9999
2 16792  82.4833 138.0385 0024484  71.6695 288.7181 14.85520257117316
SL-14 R/B               
1 16882U 86055B   26007.50914778  .00000659  00000+0  73172-4 0  9998
2 16882  82.5200 184.1575 0019072 170.4880 243.4682 14.85563437110289
AJISAI (EGS)            
1 16908U 86061A   26007.50421296 -.00000070  00000+0  19214-3 0  9996
2 16908  50.0098 281.4945 0011311 130.5623 220.8544 12.44514727460370
COSMOS 1812             
1 17295U 87003A   26007.15285001  .00125153  00000+0  60971-3 0  9991
2 17295  82.4848 264.3898 0004130  58.3205 301.8466 15.82004493134665
SL-14 R/B               
1 17567U 87024B   26007.43402065  .00000685  00000+0  75189-4 0  9998
2 17567  82.5292 150.3178 0019669 102.7952 257.5464 14.86059767 79033
COSMOS 1833             
1 17589U 87027A   26007.48562554  .00000354  00000+0  21496-3 0  9994
2 17589  70.9187  94.6582 0023759 295.9939  63.8735 14.13038325  1676
SL-16 R/B               
1 17590U 87027B   26007.49540076  .00000240  00000+0  14289-3 0  9998
2 17590  71.0031  45.4461 0006766 232.3027 127.7484 14.17157714  6674
SL-14 R/B               
1 17912U 87038B   26007.46480652  .00000629  00000+0  70191-4 0  9994
2 17912  82.5018 354.4679 0019601  11.7868 348.3803 14.85293110 70147
COSMOS 1844             
1 17973U 87041A   26007.51464542 -.00000016  00000+0  16952-4 0  9997
2 17973  70.8992 163.2077 0028556 116.2747 244.1314 14.14539287994931
SL-14 R/B               
1 18153U 87055B   26007.38486038  .00000552  00000+0  60847-4 0  9998
2 18153  82.4981  46.8162 0019832 212.7630 147.2358 14.85552262 60830
COSMOS 1867             
1 18187U 87060A   26007.52176292  .00000004  00000+0  39222-4 0  9990
2 18187  65.0111 118.0033 0013805 273.6657  86.2848 14.31491558 11188
SL-14 R/B               
1 18749U 88001B   26007.37615091  .00000532  00000+0  58714-4 0  9991
2 18749  82.5123 253.0362 0019604  81.6628 278.6810 14.85455268 32920
